H1 CPF 01  gfz 2022 09 05 00  7481 terrasarx 
H2 0702601  6201 31698    2022 09 05 00 59 42 2022 09 10 00 00 42   120 1 1  0 0 0
H9
10 0 59828  82782.000000  0     613550.633   1106557.612  -6777951.049
10 0 59828  82902.000000  0     865169.336    225519.481  -6836858.787
10 0 59828  83022.000000  0    1086320.293   -663559.265  -6776542.658
10 0 59828  83142.000000  0    1273170.982  -1544717.082  -6598040.819
10 0 59828  83262.000000  0    1422754.889  -2402059.712  -6304423.630
10 0 59828  83382.000000  0    1533018.528  -3220039.742  -5900747.957
10 0 59828  83502.000000  0    1602848.961  -3983736.190  -5393980.715
10 0 59828  83622.000000  0    1632081.176  -4679127.747  -4792888.316
10 0 59828  83742.000000  0    1621486.238  -5293352.211  -4107895.658
10 0 59828  83862.000000  0    1572739.229  -5814951.759  -3350916.595
10 0 59828  83982.000000  0    1488366.553  -6234097.006  -2535154.278
10 0 59828  84102.000000  0    1371675.152  -6542783.589  -1674875.117
10 0 59828  84222.000000  0    1226664.495  -6734996.772   -785159.842
10 0 59828  84342.000000  0    1057921.608  -6806839.523    118364.143
10 0 59828  84462.000000  0     870503.980  -6756618.709   1019803.532
10 0 59828  84582.000000  0     669811.527  -6584888.324   1903286.584
10 0 59828  84702.000000  0     461452.021  -6294447.308   2753252.700
10 0 59828  84822.000000  0     251102.374  -5890290.069   3554735.900
10 0 59828  84942.000000  0      44369.134  -5379512.793   4293633.654
10 0 59828  85062.000000  0    -153346.975  -4771180.641   4956957.955
10 0 59828  85182.000000  0    -336979.562  -4076156.719   5533064.308
10 0 59828  85302.000000  0    -501914.761  -3306898.402   6011854.355
10 0 59828  85422.000000  0    -644097.181  -2477223.974   6384948.395
10 0 59828  85542.000000  0    -760121.314  -1602058.183   6645823.961
10 0 59828  85662.000000  0    -847306.743   -697161.724   6789923.909
10 0 59828  85782.000000  0    -903756.359    221154.031   6814732.442
10 0 59828  85902.000000  0    -928396.102   1136321.386   6719816.349
10 0 59828  86022.000000  0    -920994.771   2031814.752   6506831.940
10 0 59828  86142.000000  0    -882164.498   2891448.444   6179497.881
10 0 59828  86262.000000  0    -813342.261   3699669.742   5743534.566
10 0 59828  86382.000000  0    -716752.305   4441842.949   5206569.299
10 0 59829    102.000000  0    -595349.982   5104518.923   4578009.357
10 0 59829    222.000000  0    -452748.493   5675687.436   3868882.251
10 0 59829    342.000000  0    -293128.755   6145001.851   3091645.374
10 0 59829    462.000000  0    -121136.879   6503978.809   2259971.308
10 0 59829    582.000000  0      58231.716   6746163.493   1388501.782
10 0 59829    702.000000  0     239758.423   6867251.723    492584.373
10 0 59829    822.000000  0     418133.037   6865171.556   -412004.687
10 0 59829    942.000000  0     588088.644   6740119.891  -1309347.651
10 0 59829   1062.000000  0     744534.227   6494551.831  -2183674.181
10 0 59829   1182.000000  0     882682.449   6133125.851  -3019645.104
10 0 59829   1302.000000  0     998170.711   5662606.084  -3802625.867
10 0 59829   1422.000000  0    1087172.040   5091724.261  -4518944.252
10 0 59829   1542.000000  0    1146493.105   4431005.085  -5156126.779
10 0 59829   1662.000000  0    1173657.220   3692560.572  -5703109.297
10 0 59829   1782.000000  0    1166970.234   2889859.280  -6150420.311
10 0 59829   1902.000000  0    1125568.640   2037473.964  -6490334.093
10 0 59829   2022.000000  0    1049449.081   1150815.422  -6716991.795
10 0 59829   2142.000000  0     939479.074    245856.173  -6826493.229
10 0 59829   2262.000000  0     797389.055   -661153.090  -6816956.689
10 0 59829   2382.000000  0     625745.211  -1553969.275  -6688546.496
10 0 59829   2502.000000  0     427904.428  -2416639.261  -6443469.268
10 0 59829   2622.000000  0     207951.723  -3233777.729  -6085942.275
10 0 59829   2742.000000  0     -29380.357  -3990839.316  -5622129.111
10 0 59829   2862.000000  0    -278807.243  -4674376.621  -5060042.952
10 0 59829   2982.000000  0    -534602.506  -5272282.395  -4409419.965
10 0 59829   3102.000000  0    -790721.279  -5774011.498  -3681561.682
10 0 59829   3222.000000  0   -1040934.159  -6170777.164  -2889147.395
10 0 59829   3342.000000  0   -1278968.771  -6455716.734  -2046019.534
10 0 59829   3462.000000  0   -1498656.147  -6624023.702  -1166944.297
10 0 59829   3582.000000  0   -1694077.895  -6673040.579   -267350.800
10 0 59829   3702.000000  0   -1859710.737  -6602309.370    636945.115
10 0 59829   3822.000000  0   -1990564.985  -6413578.129   1530026.534
10 0 59829   3942.000000  0   -2082312.965  -6110762.922   2396164.686
10 0 59829   4062.000000  0   -2131403.650  -5699865.582   3220105.157
10 0 59829   4182.000000  0   -2135160.317  -5188849.399   3987343.884
10 0 59829   4302.000000  0   -2091859.073  -4587477.121   4684386.884
10 0 59829   4422.000000  0   -2000786.993  -3907116.257   5298989.119
10 0 59829   4542.000000  0   -1862278.853  -3160514.996   5820369.624
10 0 59829   4662.000000  0   -1677730.091  -2361554.064   6239396.503
10 0 59829   4782.000000  0   -1449586.682  -1524983.196   6548740.589
10 0 59829   4902.000000  0   -1181313.562   -666145.339   6742998.141
10 0 59829   5022.000000  0    -877342.367    199307.236   6818778.757
10 0 59829   5142.000000  0    -542998.559   1055697.221   6774760.601
10 0 59829   5262.000000  0    -184407.987   1887605.824   6611712.704
10 0 59829   5382.000000  0     191615.281   2680150.148   6332482.263
10 0 59829   5502.000000  0     577697.583   3419249.309   5941947.704
10 0 59829   5622.000000  0     966048.431   4091876.630   5446938.876
10 0 59829   5742.000000  0    1348615.748   4686293.448   4856123.444
10 0 59829   5862.000000  0    1717250.896   5192260.650   4179860.689
10 0 59829   5982.000000  0    2063880.109   5601222.011   3430024.668
10 0 59829   6102.000000  0    2380680.133   5906458.682   2619799.785
10 0 59829   6222.000000  0    2660251.208   6103209.576   1763446.276
10 0 59829   6342.000000  0    2895785.857   6188751.267    876044.000
10 0 59829   6462.000000  0    3081226.097   6162436.334    -26780.255
10 0 59829   6582.000000  0    3211407.352   6025690.734   -929135.558
10 0 59829   6702.000000  0    3282185.368   5781969.061  -1815154.945
10 0 59829   6822.000000  0    3290542.181   5436669.821  -2669281.780
10 0 59829   6942.000000  0    3234669.097   4997012.246  -3476549.394
10 0 59829   7062.000000  0    3114023.430   4471877.401  -4222846.480
10 0 59829   7182.000000  0    2929358.981   3871620.360  -4895162.226
10 0 59829   7302.000000  0    2682729.790   3207858.138  -5481808.581
10 0 59829   7422.000000  0    2377468.680   2493238.028  -5972615.550
10 0 59829   7542.000000  0    2018140.195   1741191.918  -6359097.312
10 0 59829   7662.000000  0    1610469.911    965682.310  -6634586.805
10 0 59829   7782.000000  0    1161252.970    180945.318  -6794339.673
10 0 59829   7902.000000  0     678240.838   -598766.296  -6835608.499
10 0 59829   8022.000000  0     170008.605  -1359436.924  -6757683.744
10 0 59829   8142.000000  0    -354193.258  -2087532.787  -6561903.368
10 0 59829   8262.000000  0    -884602.548  -2770236.449  -6251633.887
10 0 59829   8382.000000  0   -1411122.900  -3395669.888  -5832218.957
10 0 59829   8502.000000  0   -1923510.995  -3953099.707  -5310896.319
10 0 59829   8622.000000  0   -2411572.254  -4433123.921  -4696685.240
10 0 59829   8742.000000  0   -2865362.472  -4827837.070  -4000241.909
10 0 59829   8862.000000  0   -3275390.151  -5130967.980  -3233683.721
10 0 59829   8982.000000  0   -3632815.337  -5337988.111  -2410385.989
10 0 59829   9102.000000  0   -3929641.418  -5446187.830  -1544752.748
10 0 59829   9222.000000  0   -4158894.549  -5454717.647   -651964.679
10 0 59829   9342.000000  0   -4314785.352  -5364592.657    252291.148
10 0 59829   9462.000000  0   -4392848.672  -5178659.367   1152103.826
10 0 59829   9582.000000  0   -4390057.663  -4901524.919   2031627.886
10 0 59829   9702.000000  0   -4304908.213  -4539449.736   2875371.688
10 0 59829   9822.000000  0   -4137472.357  -4100207.698   3668477.915
10 0 59829   9942.000000  0   -3889419.652  -3592917.524   4396991.391
10 0 59829  10062.000000  0   -3564005.086  -3027848.584   5048108.183
10 0 59829  10182.000000  0   -3166025.138  -2416207.491   5610399.549
10 0 59829  10302.000000  0   -2701743.808  -1769912.018   6074009.413
10 0 59829  10422.000000  0   -2178790.029  -1101355.744   6430823.445
10 0 59829  10542.000000  0   -1606027.824   -423166.602   6674606.598
10 0 59829  10662.000000  0    -993401.428    252033.286   6801104.054
10 0 59829  10782.000000  0    -351762.273    911860.730   6808109.790
10 0 59829  10902.000000  0     307322.877   1544397.944   6695503.245
10 0 59829  11022.000000  0     971780.035   2138407.721   6465251.478
10 0 59829  11142.000000  0    1629248.630   2683532.978   6121376.121
10 0 59829  11262.000000  0    2267310.422   3170477.717   5669887.755
10 0 59829  11382.000000  0    2873724.516   3591168.661   5118687.818
10 0 59829  11502.000000  0    3436665.167   3938893.702   4477435.862
10 0 59829  11622.000000  0    3944954.500   4208412.215   3757384.306
10 0 59829  11742.000000  0    4388288.529   4396039.591   2971187.009
10 0 59829  11862.000000  0    4757453.230   4499699.907   2132675.101
10 0 59829  11982.000000  0    5044518.044   4518945.852   1256611.159
10 0 59829  12102.000000  0    5243009.441   4454945.938    358424.143
10 0 59829  12222.000000  0    5348055.501   4310437.793   -546071.419
10 0 59829  12342.000000  0    5356497.155   4089649.063  -1440962.924
10 0 59829  12462.000000  0    5266965.791   3798188.615  -2310527.584
10 0 59829  12582.000000  0    5079924.731   3442910.210  -3139515.087
10 0 59829  12702.000000  0    4797673.697   3031753.917  -3913418.658
10 0 59829  12822.000000  0    4424316.832   2573569.254  -4618730.266
99
